SL-14 R/B               
1 21423U 91042B   25338.40825024  .00000862  00000+0  10627-3 0  9998
2 21423  82.4918 309.5365 0016707 189.0820 171.0095 14.81726962838969
ERS-1                   
1 21574U 91050A   25338.60363860  .00000641  00000+0  21972-3 0  9991
2 21574  98.7908 349.4549 0032846 123.4305 237.0030 14.39355181802051
ARIANE 40 R/B           
1 21610U 91050F   25338.67256868  .00000739  00000+0  23424-3 0  9990
2 21610  98.2176  29.3938 0003288  23.1377 336.9961 14.42803082805296
INTERCOSMOS 25          
1 21819U 91086A   25338.54443169  .00003945  00000+0  78318-3 0  9992
2 21819  82.6071   7.5320 1486955 322.0786  28.4074 12.11684873485160
SL-8 R/B                
1 21876U 92008B   25338.54583440  .00000203  00000+0  19233-3 0  9992
2 21876  82.9263 338.5419 0035636  42.2139  72.7554 13.75956448696332
SL-8 R/B                
1 21938U 92020B   25338.68532102  .00000097  00000+0  84961-4 0  9991
2 21938  82.9312 224.2980 0028387 200.9070 176.9776 13.75524978688076
USA 81                  
1 21949U 92023A   25338.65085398  .00000351  00000+0  12282-3 0  9992
2 21949  85.0087 186.2411 0001770  62.5389 297.5984 14.32322618 81180
COSMOS 2219             
1 22219U 92076A   25338.66033015 -.00000162  00000+0 -60060-4 0  9991
2 22219  71.0592 216.7218 0018891 337.8776  22.1529 14.14063692704948
SL-16 R/B               
1 22220U 92076B   25338.61801578  .00000024  00000+0  35635-4 0  9990
2 22220  71.0015  28.6403 0015051 245.0333 277.6036 14.16841686708369
COSMOS 2221             
1 22236U 92080A   25338.58933958  .00003897  00000+0  34706-3 0  9994
2 22236  82.5047  10.1270 0015419 147.1380 213.0803 14.95713921766578
SL-16 R/B               
1 22285U 92093B   25338.68757596 -.00000009  00000+0  19916-4 0  9995
2 22285  71.0202 203.6986 0001966  96.9353 263.1993 14.15425710699719
COSMOS 2228             
1 22286U 92094A   25338.66764742  .00005347  00000+0  46531-3 0  9997
2 22286  82.5170 328.2585 0016331 261.1008  98.8365 14.96670808761844
